[{"OBJECT_NAME":"STARLINK-3915","OBJECT_ID":"2022-051AX","EPOCH":"2026-03-09T09:49:19.409952","MEAN_MOTION":15.08845824,"ECCENTRICITY":0.00012362,"INCLINATION":53.2163,"RA_OF_ASC_NODE":120.3814,"ARG_OF_PERICENTER":90.897,"MEAN_ANOMALY":269.2164,"EPHEMERIS_TYPE":0,"CLASSIFICATION_TYPE":"U","NORAD_CAT_ID":52581,"ELEMENT_SET_NO":999,"REV_AT_EPOCH":21154,"BSTAR":8.9170551e-5,"MEAN_MOTION_DOT":1.132e-5,"MEAN_MOTION_DDOT":0},{"OBJECT_NAME":"OBJECT T","OBJECT_ID":"2018-099T","EPOCH":"2026-03-09T14:32:29.418720","MEAN_MOTION":15.09436097,"ECCENTRICITY":0.0004517,"INCLINATION":97.4347,"RA_OF_ASC_NODE":115.9313,"ARG_OF_PERICENTER":320.9739,"MEAN_ANOMALY":39.1164,"EPHEMERIS_TYPE":0,"CLASSIFICATION_TYPE":"U","NORAD_CAT_ID":43775,"ELEMENT_SET_NO":999,"REV_AT_EPOCH":39729,"BSTAR":0.00032877,"MEAN_MOTION_DOT":5.2e-5,"MEAN_MOTION_DDOT":0}]
